COSMOS 1933             
1 18958U 88020A   22264.53288387  .00001976  00000+0  13770-3 0  9992
2 18958  82.5288  47.4393 0010146 211.6839 148.3778 15.04876868859258
SL-3 R/B                
1 19046U 88032B   22265.53329323  .00002322  00000+0  17012-3 0  9990
2 19046  97.3989 260.2365 0034777 267.9234  91.8010 15.04016616861499
SL-16 R/B               
1 19120U 88039B   22264.58826213 -.00000082  00000+0 -16047-4 0  9995
2 19120  71.0139 222.8028 0019965 123.7973 236.5056 14.19256116778861
COSMOS 1953             
1 19210U 88050A   22265.44915014  .00002938  00000+0  19053-3 0  9991
2 19210  82.5176 326.4090 0011258 168.1337 192.0158 15.07701630867304
SL-8 R/B                
1 19257U 88053B   22264.34286741  .00000227  00000+0  84044-4 0  9993
2 19257  74.0462 282.2272 0019370  54.2411 317.7775 14.37631862794683
COSMOS 1975             
1 19573U 88093A   22265.56240964  .00001638  00000+0  10859-3 0  9999
2 19573  82.5153 282.3548 0012737 212.3559 147.6888 15.06585061849088
SL-14 R/B               
1 19574U 88093B   22264.93395922  .00000248  00000+0  27150-4 0  9994
2 19574  82.5328 147.1350 0020024 255.6905 115.0598 14.83551388813396
SL-16 R/B               
1 19650U 88102B   22265.53747724  .00000285  00000+0  16885-3 0  9991
2 19650  70.9984 290.6760 0012826 142.5997 217.6021 14.15840553748224
INTERCOSMOS 24          
1 20261U 89080A   22265.51513447  .00000981  00000+0  29193-3 0  9997
2 20261  82.6058 204.8907 1201283 339.1352  16.4395 12.56501839507432
SL-14 R/B               
1 20262U 89080C   22265.50224122  .00000146  00000+0  39539-4 0  9995
2 20262  82.5882 264.0991 1235954 191.1882 165.9232 12.49098228501804
DELTA 2 R/B(1)          
1 20303U 89085B   22265.13151791  .00017941  00000+0  42788-3 0  9996
2 20303  35.6372 192.2651 0075265   1.5077 358.5870 15.37736612794790
DELTA 1 R/B             
1 20323U 89089B   22265.54717839  .00000213  00000+0  63825-4 0  9998
2 20323  97.0738 291.6120 0072391 147.6888 212.8774 14.48562773733125
ARIANE 40 R/B           
1 20443U 90005H   22265.46709257  .00000166  00000+0  68848-4 0  9994
2 20443  98.4753 332.0276 0011057  41.5883 318.6143 14.38270870711248
DELTA 2 R/B(1)          
1 20453U 90008B   22264.84080390  .00004294  00000+0  22384-3 0  9999
2 20453  35.6239  50.7768 0262534  21.0779 340.0531 14.90572093734296
COSMOS 2058             
1 20465U 90010A   22264.73479541  .00001479  00000+0  11944-3 0  9995
2 20465  82.4913 197.7971 0013648 297.9376  62.0465 14.99105913752056
SL-14 R/B               
1 20466U 90010B   22264.59494381  .00000321  00000+0  37763-4 0  9992
2 20466  82.5065  13.5466 0021394 140.2577 220.0209 14.81592118741047
SL-14 R/B               
1 20511U 90018B   22265.54369316  .00000247  00000+0  29375-4 0  9993
2 20511  82.5239 322.7494 0015878 286.5576 191.2275 14.80241574756550
HST                     
1 20580U 90037B   22264.69601994  .00002261  00000+0  12163-3 0  9990
2 20580  28.4693 250.9342 0002434 359.0472 169.0786 15.10897064580783
SL-16 R/B               
1 20625U 90046B   22265.51498990  .00000141  00000+0  97722-4 0  9992
2 20625  70.9974  72.1821 0012397  61.8599 298.3774 14.14699205669837
COSMOS 2084             
1 20663U 90055A   22265.35763816  .00001156  00000+0  11226-3 0  9999
2 20663  62.7910 285.6000 0125335  59.7370 301.6059 14.93128509746772
SL-6 R/B(2)             
1 20666U 90055D   22265.52948692  .00001700  00000+0  15279-3 0  9995
2 20666  62.7835 199.2602 0132236  81.9598 279.6476 14.93478387748227
SL-8 R/B                
1 20775U 90078B   22264.87407958  .00005701  00000+0  26230-3 0  9997
2 20775  82.9203 262.6024 0548115 145.2996 218.5282 14.40924937624406
SL-8 R/B                
1 21088U 91006B   22264.59108234  .00000106  00000+0  91422-4 0  9991
2 21088  82.9450  30.9649 0022036 341.3932  29.3315 13.77213541589928
OKEAN-3                 
1 21397U 91039A   22265.08939100  .00001160  00000+0  10649-3 0  9991
2 21397  82.5185 110.5760 0016044 283.2070  76.7360 14.93897109696685
COSMOS 2151             
1 21422U 91042A   22264.78471072  .00001173  00000+0  11083-3 0  9996
2 21422  82.5013 215.9460 0013969 358.6770   1.4411 14.92823251674053
SL-14 R/B               
1 21423U 91042B   22264.66030478  .00000235  00000+0  27918-4 0  9998
2 21423  82.4951 324.6441 0019029  73.9273 286.4034 14.79986193665853
ERS-1                   
1 21574U 91050A   22264.72400448  .00000136  00000+0  59669-4 0  9997
2 21574  98.7081 234.7739 0032897 354.7460   5.3376 14.37933984633857
ARIANE 40 R/B           
1 21610U 91050F   22264.70403542  .00000172  00000+0  66849-4 0  9992
2 21610  98.3732 332.3058 0002117 309.4605  50.6397 14.41106312636699
INTERCOSMOS 25          
1 21819U 91086A   22265.52659783  .00001035  00000+0  21107-3 0  9999
2 21819  82.6065 350.4609 1511775 308.8160  38.7098 12.05985593343945
SL-8 R/B                
1 21876U 92008B   22264.89591751  .00000035  00000+0  20116-4 0  9995
2 21876  82.9253 128.1566 0036053  67.3083 304.3593 13.75715841535505
SL-8 R/B                
1 21938U 92020B   22264.36108632  .00000086  00000+0  73381-4 0  9990
2 21938  82.9346  13.3796 0028293 227.2772 237.0963 13.75313005527191
COSMOS 2219             
1 22219U 92076A   22265.39226019  .00000091  00000+0  72916-4 0  9997
2 22219  71.0611 140.1870 0019634 326.5581  33.4300 14.13712019540009
SL-16 R/B               
1 22220U 92076B   22265.16106439  .00000258  00000+0  15360-3 0  9991
2 22220  71.0020 331.2735 0014503 229.2471 172.2067 14.16507413543070
COSMOS 2221             
1 22236U 92080A   22264.45748795  .00001145  00000+0  11986-3 0  9997
2 22236  82.5082  42.8815 0017965  98.5583 261.7671 14.88638039592114
SL-16 R/B               
1 22285U 92093B   22264.72879517 -.00000261  00000+0 -10983-3 0  9998
2 22285  71.0213 139.0108 0002100  58.2881 301.8447 14.15101100534184
COSMOS 2228             
1 22286U 92094A   22264.61847740  .00001134  00000+0  11782-3 0  9997
2 22286  82.5236 359.9521 0019990 212.3994 147.5998 14.88904656587330
SL-16 R/B               
1 22566U 93016B   22265.51115649 -.00000174  00000+0 -65433-4 0  9997
2 22566  71.0099 349.6422 0008008  86.4182 273.7857 14.15008189523336
COSMOS 2242             
1 22626U 93024A   22264.41324281  .00001160  00000+0  12125-3 0  9998
2 22626  82.5237  28.6240 0017836 213.3424 146.6672 14.88724982591687
SL-16 R/B               
1 22803U 93059B   22265.41701160 -.00000239  00000+0 -95271-4 0  9991
2 22803  70.9905 156.4540 0018388 329.8207  30.1856 14.16876194500691
ARIANE 40 R/B           
1 22830U 93061H   22264.69272805  .00000103  00000+0  55270-4 0  9995
2 22830  98.6548 327.2485 0011815  60.4181 299.8178 14.31585516513039
COSMOS 2278             
1 23087U 94023A   22265.53692190 -.00000083  00000+0 -18951-4 0  9990
2 23087  71.0540 298.8265 0008007 176.6699 183.4478 14.13887207466347
SL-16 R/B               
1 23088U 94023B   22265.54027354 -.00000228  00000+0 -93623-4 0  9996
2 23088  70.9995 205.0749 0001837  13.5241 346.5930 14.14718518467551
SL-16 R/B               
1 23343U 94074B   22264.73547792  .00000244  00000+0  41637-4 0  9993
2 23343  97.8834 315.5458 0007104  17.3085 127.8522 14.77090299500373
SL-16 R/B               
1 23405U 94077B   22265.37528499  .00000246  00000+0  15080-3 0  9993
2 23405  70.9822 131.6953 0004789 278.9640  81.0940 14.15267829437603
ERS-2                   
1 23560U 95021A   22265.53583031  .00006268  00000+0  23437-3 0  9991
2 23560  98.4974 184.3776 0002277 191.5784 168.5400 15.27781252468167
ARIANE 40+ R/B          
1 23561U 95021B   22265.45224609  .00000171  00000+0  71208-4 0  9993
2 23561  98.6140 323.1012 0006169 325.2391  45.5410 14.38190512437654
SL-16 R/B               
1 23705U 95058B   22265.52890476  .00000327  00000+0  19264-3 0  9998
2 23705  71.0227 313.5980 0014564 249.7033 110.2525 14.15182562389286
SL-16 R/B               
1 24298U 96051B   22265.55112761  .00000092  00000+0  76320-4 0  9993
2 24298  70.8232 325.9166 0018622 212.2774 147.7207 14.12434708343401
ORBVIEW 2 (SEASTAR)     
1 24883U 97037A   22264.60271549  .00000194  00000+0  86056-4 0  9993
2 24883  98.6921  28.3385 0002501 162.8642 197.2627 14.33782781327086
SL-16 R/B               
1 25400U 98043G   22264.23533687  .00000029  00000+0  30954-4 0  9993
2 25400  98.6760 199.3247 0011046  90.1086 270.1359 14.25528043258668
SL-16 R/B               
1 25407U 98045B   22265.51542255 -.00000204  00000+0 -79287-4 0  9994
2 25407  71.0125 319.3561 0006659 171.6943 188.4291 14.15871491248414
ISS (ZARYA)             
1 25544U 98067A   22265.36699292  .00008385  00000+0  15359-3 0  9992
2 25544  51.6422 215.1278 0002410 280.9674 217.3178 15.50214334360254
CZ-4B R/B               
1 25732U 99025C   22264.65603791  .00000019  00000+0  31154-4 0  9994
2 25732  98.8460 305.6689 0037524  14.2044 142.7176 14.17743487208889
OKEAN-O                 
1 25860U 99039A   22265.53580312  .00000347  00000+0  56717-4 0  9998
2 25860  98.1307 306.1954 0001889  94.1435 265.9991 14.77019851247671
SL-16 R/B               
1 25861U 99039B   22265.50162177  .00000339  00000+0  53324-4 0  9993
2 25861  98.1738 294.0832 0016068  25.5087 334.6913 14.78894763249973
DELTA 2 R/B             
1 25876U 99041E   22265.12148658  .00000797  00000+0  17318-3 0  9998
2 25876  51.7663 285.5855 0528892 236.0088 118.9518 14.05253356184838
HELIOS 1B               
1 25977U 99064A   22264.56223578  .00000367  00000+0  52413-4 0  9996
2 25977  98.3177 102.6446 0001326 142.2551 217.8754 14.82863266497529
TERRA                   
1 25994U 99068A   22265.51456955  .00000264  00000+0  68399-4 0  9998
2 25994  98.1293 335.1713 0001115  86.0401  38.4699 14.57157431210755
SL-16 R/B               
1 26070U 00006B   22264.77935171 -.00000236  00000+0 -96006-4 0  9994
2 26070  71.0007 236.7832 0018705 302.6304  57.3013 14.15498593169545
